{"type": "FeatureCollection", "features": [ {"type": "Feature", "properties": {"norad_id": 36402, "name": "COSMOS 2460 (732)", "group": "gnss", "lat": -43.92917285422311, "lon": 166.40272132560435, "alt_km": 19131.138510908062, "timestamp": "2025-12-23T11:34:48.409461+00:00", "meta": {"OBJECT_NAME": "COSMOS 2460 (732)", "OBJECT_ID": "2010-007C", "EPOCH": "2025-12-22T12:30:28.820160", "MEAN_MOTION": 2.1310637, "ECCENTRICITY": 0.00025026, "INCLINATION": 65.5243, "RA_OF_ASC_NODE": 320.4432, "ARG_OF_PERICENTER": 283.7046, "MEAN_ANOMALY": 288.4145, "EPHEMERIS_TYPE": 0, "CLASSIFICATION_TYPE": "U", "NORAD_CAT_ID": 36402, "ELEMENT_SET_NO": 999, "REV_AT_EPOCH": 12296, "BSTAR": 0, "MEAN_MOTION_DOT": -3.9e-07, "MEAN_MOTION_DDOT": 0}, "tle": {"line1": "1 36402U 10007C   25356.52116690 -.00000039  00000+0  00000+0 0  9995", "line2": "2 36402  65.5243 320.4432 0002502 283.7046 288.4145  2.13106370122964"}}, "geometry": {"type": "Point", "coordinates": [166.40272132560435, -43.92917285422311]}}, {"type": "Feature", "properties": {"norad_id": 36585, "name": "GPS BIIF-1  (PRN 25)", "group": "gnss", "lat": 15.519552232249511, "lon": -132.827506817693, "alt_km": 19945.184712153306, "timestamp": "2025-12-23T11:34:48.409471+00:00", "meta": {"OBJECT_NAME": "GPS BIIF-1  (PRN 25)", "OBJECT_ID": "2010-022A", "EPOCH": "2025-12-22T16:51:10.735776", "MEAN_MOTION": 2.00553722, "ECCENTRICITY": 0.01265064, "INCLINATION": 54.2986, "RA_OF_ASC_NODE": 215.6721, "ARG_OF_PERICENTER": 65.2014, "MEAN_ANOMALY": 111.7679, "EPHEMERIS_TYPE": 0, "CLASSIFICATION_TYPE": "U", "NORAD_CAT_ID": 36585, "ELEMENT_SET_NO": 999, "REV_AT_EPOCH": 11405, "BSTAR": 0, "MEAN_MOTION_DOT": 7.3e-07, "MEAN_MOTION_DDOT": 0}, "tle": {"line1": "1 36585U 10022A   25356.70220759  .00000073  00000+0  00000+0 0  9993", "line2": "2 36585  54.2986 215.6721 0126506  65.2014 111.7679  2.00553722114054"}}, "geometry": {"type": "Point", "coordinates": [-132.827506817693, 15.519552232249511]}}, {"type": "Feature", "properties": {"norad_id": 36828, "name": "BEIDOU-2 IGSO-1 (C06)", "group": "gnss", "lat": -23.51293491561427, "lon": 2.795975924338244, "alt_km": 35569.91892930904, "timestamp": "2025-12-23T11:34:48.409481+00:00", "meta": {"OBJECT_NAME": "BEIDOU-2 IGSO-1 (C06)", "OBJECT_ID": "2010-036A", "EPOCH": "2025-12-20T21:47:26.739168", "MEAN_MOTION": 1.00282395, "ECCENTRICITY": 0.0051798, "INCLINATION": 54.2882, "RA_OF_ASC_NODE": 164.5739, "ARG_OF_PERICENTER": 215.2932, "MEAN_ANOMALY": 144.6604, "EPHEMERIS_TYPE": 0, "CLASSIFICATION_TYPE": "U", "NORAD_CAT_ID": 36828, "ELEMENT_SET_NO": 999, "REV_AT_EPOCH": 5631, "BSTAR": 0, "MEAN_MOTION_DOT": -5.5e-07, "MEAN_MOTION_DDOT": 0}, "tle": {"line1": "1 36828U 10036A   25354.90794837 -.00000055  00000+0  00000+0 0  9992", "line2": "2 36828  54.2882 164.5739 0051798 215.2932 144.6604  1.00282395 56317"}}, "geometry": {"type": "Point", "coordinates": [2.795975924338244, -23.51293491561427]}}, {"type": "Feature", "properties": {"norad_id": 37210, "name": "BEIDOU-2 G4 (C04)", "group": "gnss", "lat": -0.19548899365648154, "lon": 66.09496962499428, "alt_km": 35828.12057825933, "timestamp": "2025-12-23T11:34:48.409493+00:00", "meta": {"OBJECT_NAME": "BEIDOU-2 G4 (C04)", "OBJECT_ID": "2010-057A", "EPOCH": "2025-12-23T00:51:50.444928", "MEAN_MOTION": 1.0027179, "ECCENTRICITY": 0.0010394, "INCLINATION": 3.2085, "RA_OF_ASC_NODE": 69.8994, "ARG_OF_PERICENTER": 193.4906, "MEAN_ANOMALY": 1.4869, "EPHEMERIS_TYPE": 0, "CLASSIFICATION_TYPE": "U", "NORAD_CAT_ID": 37210, "ELEMENT_SET_NO": 999, "REV_AT_EPOCH": 5552, "BSTAR": 0, "MEAN_MOTION_DOT": -9.2e-07, "MEAN_MOTION_DDOT": 0}, "tle": {"line1": "1 37210U 10057A   25357.03600052 -.00000092  00000+0  00000+0 0  9994", "line2": "2 37210   3.2085  69.8994 0010394 193.4906   1.4869  1.00271790 55529"}}, "geometry": {"type": "Point", "coordinates": [66.09496962499428, -0.19548899365648154]}}, {"type": "Feature", "properties": {"norad_id": 37256, "name": "BEIDOU-2 IGSO-2 (C07)", "group": "gnss", "lat": 47.05663309819888, "lon": 17.92470770679122, "alt_km": 35869.239230363324, "timestamp": "2025-12-23T11:34:48.409504+00:00", "meta": {"OBJECT_NAME": "BEIDOU-2 IGSO-2 (C07)", "OBJECT_ID": "2010-068A", "EPOCH": "2025-12-22T18:34:33.319200", "MEAN_MOTION": 1.00283389, "ECCENTRICITY": 0.00485799, "INCLINATION": 47.8675, "RA_OF_ASC_NODE": 274.0264, "ARG_OF_PERICENTER": 216.371, "MEAN_ANOMALY": 347.8143, "EPHEMERIS_TYPE": 0, "CLASSIFICATION_TYPE": "U", "NORAD_CAT_ID": 37256, "ELEMENT_SET_NO": 999, "REV_AT_EPOCH": 5502, "BSTAR": 0, "MEAN_MOTION_DOT": -1.86e-06, "MEAN_MOTION_DDOT": 0}, "tle": {"line1": "1 37256U 10068A   25356.77399675 -.00000186  00000+0  00000+0 0  9996", "line2": "2 37256  47.8675 274.0264 0048579 216.3710 347.8143  1.00283389 55026"}}, "geometry": {"type": "Point", "coordinates": [17.92470770679122, 47.05663309819888]}}, {"type": "Feature", "properties": {"norad_id": 37384, "name": "BEIDOU-2 IGSO-3 (C08)", "group": "gnss", "lat": -24.88221330255902, "lon": 27.666963353917915, "alt_km": 35910.93961490481, "timestamp": "2025-12-23T11:34:48.409516+00:00", "meta": {"OBJECT_NAME": "BEIDOU-2 IGSO-3 (C08)", "OBJECT_ID": "2011-013A", "EPOCH": "2025-12-22T13:40:14.018880", "MEAN_MOTION": 1.00268611, "ECCENTRICITY": 0.00353737, "INCLINATION": 62.1558, "RA_OF_ASC_NODE": 41.8231, "ARG_OF_PERICENTER": 187.5329, "MEAN_ANOMALY": 174.3937, "EPHEMERIS_TYPE": 0, "CLASSIFICATION_TYPE": "U", "NORAD_CAT_ID": 37384, "ELEMENT_SET_NO": 999, "REV_AT_EPOCH": 5389, "BSTAR": 0, "MEAN_MOTION_DOT": -1.6e-06, "MEAN_MOTION_DDOT": 0}, "tle": {"line1": "1 37384U 11013A   25356.56960670 -.00000160  00000+0  00000+0 0  9997", "line2": "2 37384  62.1558  41.8231 0035373 187.5329 174.3937  1.00268611 53893"}}, "geometry": {"type": "Point", "coordinates": [27.666963353917915, -24.88221330255902]}}, {"type": "Feature", "properties": {"norad_id": 37605, "name": "GSAT-8 (GAGAN/PRN 127)", "group": "gnss", "lat": -1.4245751247762897, "lon": -38.89392867755529, "alt_km": 35762.707080570224, "timestamp": "2025-12-23T11:34:48.409527+00:00", "meta": {"OBJECT_NAME": "GSAT-8 (GAGAN/PRN 127)", "OBJECT_ID": "2011-022A", "EPOCH": "2025-12-23T03:07:21.419328", "MEAN_MOTION": 1.00271109, "ECCENTRICITY": 0.0008903, "INCLINATION": 1.6749, "RA_OF_ASC_NODE": 84.0866, "ARG_OF_PERICENTER": 185.9047, "MEAN_ANOMALY": 283.8415, "EPHEMERIS_TYPE": 0, "CLASSIFICATION_TYPE": "U", "NORAD_CAT_ID": 37605, "ELEMENT_SET_NO": 999, "REV_AT_EPOCH": 5145, "BSTAR": 0, "MEAN_MOTION_DOT": 1.05e-06, "MEAN_MOTION_DDOT": 0}, "tle": {"line1": "1 37605U 11022A   25357.13010902  .00000105  00000+0  00000+0 0  9999", "line2": "2 37605   1.6749  84.0866 0008903 185.9047 283.8415  1.00271109 51453"}}, "geometry": {"type": "Point", "coordinates": [-38.89392867755529, -1.4245751247762897]}}, {"type": "Feature", "properties": {"norad_id": 37763, "name": "BEIDOU-2 IGSO-4 (C09)", "group": "gnss", "lat": -10.106091430132661, "lon": -5.466821032819311, "alt_km": 35285.24476905005, "timestamp": "2025-12-23T11:34:48.409538+00:00", "meta": {"OBJECT_NAME": "BEIDOU-2 IGSO-4 (C09)", "OBJECT_ID": "2011-038A", "EPOCH": "2025-12-21T10:06:26.864064", "MEAN_MOTION": 1.00280083, "ECCENTRICITY": 0.01491557, "INCLINATION": 54.5854, "RA_OF_ASC_NODE": 167.2693, "ARG_OF_PERICENTER": 230.0944, "MEAN_ANOMALY": 299.1265, "EPHEMERIS_TYPE": 0, "CLASSIFICATION_TYPE": "U", "NORAD_CAT_ID": 37763, "ELEMENT_SET_NO": 999, "REV_AT_EPOCH": 5286, "BSTAR": 0, "MEAN_MOTION_DOT": 5.9e-07, "MEAN_MOTION_DDOT": 0}, "tle": {"line1": "1 37763U 11038A   25355.42114426  .00000059  00000+0  00000+0 0  9995", "line2": "2 37763  54.5854 167.2693 0149155 230.0944 299.1265  1.00280083 52867"}}, "geometry": {"type": "Point", "coordinates": [-5.466821032819311, -10.106091430132661]}}, {"type": "Feature", "properties": {"norad_id": 37846, "name": "GSAT0101 (GALILEO-PFM)", "group": "gnss", "lat": 11.862313464733367, "lon": -5.653450372941011, "alt_km": 23215.172084260932, "timestamp": "2025-12-23T11:34:48.409551+00:00", "meta": {"OBJECT_NAME": "GSAT0101 (GALILEO-PFM)", "OBJECT_ID": "2011-060A", "EPOCH": "2025-12-22T06:52:10.962336", "MEAN_MOTION": 1.70475741, "ECCENTRICITY": 0.00032123, "INCLINATION": 57.0506, "RA_OF_ASC_NODE": 346.5611, "ARG_OF_PERICENTER": 320.0005, "MEAN_ANOMALY": 39.9838, "EPHEMERIS_TYPE": 0, "CLASSIFICATION_TYPE": "U", "NORAD_CAT_ID": 37846, "ELEMENT_SET_NO": 999, "REV_AT_EPOCH": 8810, "BSTAR": 0, "MEAN_MOTION_DOT": -6.5e-07, "MEAN_MOTION_DDOT": 0}, "tle": {"line1": "1 37846U 11060A   25356.28623799 -.00000065  00000+0  00000+0 0  9993", "line2": "2 37846  57.0506 346.5611 0003212 320.0005  39.9838  1.70475741 88100"}}, "geometry": {"type": "Point", "coordinates": [-5.653450372941011, 11.862313464733367]}}, {"type": "Feature", "properties": {"norad_id": 37847, "name": "GSAT0102 (GALILEO-FM2)", "group": "gnss", "lat": 46.41525552523546, "lon": 29.4712223158615, "alt_km": 23220.900390578827, "timestamp": "2025-12-23T11:34:48.409562+00:00", "meta": {"OBJECT_NAME": "GSAT0102 (GALILEO-FM2)", "OBJECT_ID": "2011-060B", "EPOCH": "2025-12-21T21:59:38.834016", "MEAN_MOTION": 1.70475998, "ECCENTRICITY": 0.00051487, "INCLINATION": 57.0514, "RA_OF_ASC_NODE": 346.5715, "ARG_OF_PERICENTER": 312.846, "MEAN_ANOMALY": 225.6479, "EPHEMERIS_TYPE": 0, "CLASSIFICATION_TYPE": "U", "NORAD_CAT_ID": 37847, "ELEMENT_SET_NO": 999, "REV_AT_EPOCH": 8810, "BSTAR": 0, "MEAN_MOTION_DOT": -6.6e-07, "MEAN_MOTION_DDOT": 0}, "tle": {"line1": "1 37847U 11060B   25355.91642169 -.00000066  00000+0  00000+0 0  9996", "line2": "2 37847  57.0514 346.5715 0005148 312.8460 225.6479  1.70475998 88108"}}, "geometry": {"type": "Point", "coordinates": [29.4712223158615, 46.41525552523546]}}]}